[{"OBJECT_NAME":"KUIPER-00104","OBJECT_ID":"2025-171L","EPOCH":"2026-03-09T10:35:04.494336","MEAN_MOTION":14.79932172,"ECCENTRICITY":5.7e-5,"INCLINATION":51.9005,"RA_OF_ASC_NODE":159.1319,"ARG_OF_PERICENTER":76.311,"MEAN_ANOMALY":283.7915,"EPHEMERIS_TYPE":0,"CLASSIFICATION_TYPE":"U","NORAD_CAT_ID":65142,"ELEMENT_SET_NO":999,"REV_AT_EPOCH":3285,"BSTAR":0.00077462132,"MEAN_MOTION_DOT":5.689e-5,"MEAN_MOTION_DDOT":0},{"OBJECT_NAME":"COSMOS 2251 DEB","OBJECT_ID":"1993-036BVZ","EPOCH":"2026-03-05T00:56:00.979008","MEAN_MOTION":14.83036639,"ECCENTRICITY":0.00524286,"INCLINATION":74.0151,"RA_OF_ASC_NODE":339.2252,"ARG_OF_PERICENTER":96.1915,"MEAN_ANOMALY":281.2414,"EPHEMERIS_TYPE":0,"CLASSIFICATION_TYPE":"U","NORAD_CAT_ID":40796,"ELEMENT_SET_NO":999,"REV_AT_EPOCH":77378,"BSTAR":0.0010636969,"MEAN_MOTION_DOT":8.84e-5,"MEAN_MOTION_DDOT":0}]
